NORAD_CAT_ID,OBJECT_NAME,OBJECT_TYPE,EPOCH,MEAN_MOTION,ECCENTRICITY,INCLINATION,RA_OF_ASC_NODE,ARG_OF_PERICENTER,MEAN_ANOMALY,BSTAR,MEAN_MOTION_DOT,MEAN_MOTION_DDOT,TLE_LINE0,TLE_LINE1,TLE_LINE2,SEMIMAJOR_AXIS,PERIOD,APOGEE,PERIGEE,DECAYED
49163.0,STARLINK-3088,PAYLOAD,2022-11-11 13:11:52,14.98316822,0.0003297,69.9992,95.7367,261.2129,98.8657,6.8855e-05,7.28e-06,0.0,0 STARLINK-3088,1 49163U 21082AK  22315.54991647  .00000728  00000-0  68855-4 0  9997,2 49163  69.9992  95.7367 0003297 261.2129  98.8657 14.98316822 65761,6950.234,96.108,574.39,569.807,0.0
49163.0,STARLINK-3088,PAYLOAD,2022-11-11 19:36:25,14.98315275,0.0003297,69.9993,95.0635,261.0883,98.9903,0.00025905,2.998e-05,0.0,0 STARLINK-3088,1 49163U 21082AK  22315.81695668  .00002998  00000-0  25905-3 0  9990,2 49163  69.9993  95.0635 0003297 261.0883  98.9903 14.98315275 65809,6950.238,96.108,574.395,569.812,0.0
49163.0,STARLINK-3088,PAYLOAD,2022-11-11 22:48:41,14.98323003,0.0003335,69.9993,94.7269,261.5933,98.4848,0.00013729,1.545e-05,0.0,0 STARLINK-3088,1 49163U 21082AK  22315.95047464  .00001545  00000-0  13729-3 0  9998,2 49163  69.9993  94.7269 0003335 261.5933  98.4848 14.98323003 65836,6950.215,96.107,574.3969999999998,569.762,0.0
49163.0,STARLINK-3088,PAYLOAD,2022-11-12 13:13:53,14.98332688,0.0003267,69.9993,93.2119,261.5754,98.5035,0.00017435,1.988e-05,0.0,0 STARLINK-3088,1 49163U 21082AK  22316.55131042  .00001988  00000-0  17435-3 0  9990,2 49163  69.9993  93.2119 0003267 261.5754  98.5035 14.98332688 65927,6950.185,96.107,574.32,569.779,0.0
49163.0,STARLINK-3088,PAYLOAD,2022-11-12 19:38:25,14.98338008,0.0003255,70.0008,92.5386,262.1189,97.9601,0.00030667,3.569e-05,0.0,0 STARLINK-3088,1 49163U 21082AK  22316.81834979  .00003569  00000-0  30667-3 0  9997,2 49163  70.0008  92.5386 0003255 262.1189  97.9601 14.98338008 65958,6950.168000000002,96.106,574.295,569.771,0.0
49163.0,STARLINK-3088,PAYLOAD,2022-11-13 13:15:54,14.98339675,0.0003225,70.0011,90.6872,262.3106,97.7687,0.0002914,3.387e-05,0.0,0 STARLINK-3088,1 49163U 21082AK  22317.55270898  .00003387  00000-0  29140-3 0  9995,2 49163  70.0011  90.6872 0003225 262.3106  97.7687 14.98339675 66065,6950.163000000001,96.106,574.269,569.7869999999998,0.0
49163.0,STARLINK-3088,PAYLOAD,2022-11-13 18:04:18,14.98339773,0.0003246,70.0011,90.1821,262.6043,97.4747,0.00023641,2.730000000000001e-05,0.0,0 STARLINK-3088,1 49163U 21082AK  22317.75298806  .00002730  00000-0  23641-3 0  9997,2 49163  70.0011  90.1821 0003246 262.6043  97.4747 14.98339773 66108,6950.163000000001,96.106,574.284,569.7719999999998,0.0
49163.0,STARLINK-3088,PAYLOAD,2022-11-14 11:41:46,14.983340599999998,0.0003012,70.0014,88.3314,261.7292,98.3526,-2.2402e-05,-3.6000000000000007e-06,0.0,0 STARLINK-3088,1 49163U 21082AK  22318.48734773 -.00000360  00000-0 -22402-4 0  9990,2 49163  70.0014  88.3314 0003012 261.7292  98.3526 14.98334060 66204,6950.18,96.107,574.139,569.952,0.0
49163.0,STARLINK-3088,PAYLOAD,2022-11-14 18:06:19,14.98338443,0.0003224,70.0001,87.6577,263.7891,96.2901,-0.00012236,-1.553e-05,0.0,0 STARLINK-3088,1 49163U 21082AK  22318.75438863 -.00001553  00000-0 -12236-3 0  9999,2 49163  70.0001  87.6577 0003224 263.7891  96.2901 14.98338443 66253,6950.167,96.106,574.273,569.7909999999998,0.0
49163.0,STARLINK-3088,PAYLOAD,2022-11-15 13:19:55,14.98339993,0.000327,69.9995,85.6372,262.5757,97.503,0.00011841,1.32e-05,0.0,0 STARLINK-3088,1 49163U 21082AK  22319.55549834  .00001320  00000-0  11841-3 0  9990,2 49163  69.9995  85.6372 0003270 262.5757  97.5030 14.98339993 66362,6950.1619999999975,96.106,574.3,569.754,0.0
49163.0,STARLINK-3088,PAYLOAD,2022-11-15 18:08:20,14.98326567,0.0003219,69.9997,85.1324,263.244,96.8352,-3.2035e-05,-4.75e-06,0.0,0 STARLINK-3088,1 49163U 21082AK  22319.75579056 -.00000475  00000-0 -32035-4 0  9992,2 49163  69.9997  85.1324 0003219 263.2440  96.8352 14.98326567 66403,6950.204000000002,96.107,574.306,569.831,0.0
49163.0,STARLINK-3088,PAYLOAD,2022-11-15 19:44:28,14.98327625,0.0003216,69.9997,84.9642,263.2117,96.8676,-2.1047e-05,-3.44e-06,0.0,0 STARLINK-3088,1 49163U 21082AK  22319.82254938 -.00000344  00000-0 -21047-4 0  9995,2 49163  69.9997  84.9642 0003216 263.2117  96.8676 14.98327625 66406,6950.2,96.107,574.3,569.83,0.0
49163.0,STARLINK-3088,PAYLOAD,2022-11-16 10:09:40,14.98329036,0.0003265,69.9997,83.4494,263.2159,96.8628,0.00011241,1.248e-05,0.0,0 STARLINK-3088,1 49163U 21082AK  22320.42338571  .00001248  00000-0  11241-3 0  9995,2 49163  69.9997  83.4494 0003265 263.2159  96.8628 14.98329036 66499,6950.196,96.107,574.33,569.7919999999998,0.0
49163.0,STARLINK-3088,PAYLOAD,2022-11-16 18:10:20,14.98334442,0.0003228,70.0,82.6074,264.6741,95.4049,0.00015757,1.788e-05,0.0,0 STARLINK-3088,1 49163U 21082AK  22320.75718251  .00001788  00000-0  15757-3 0  9993,2 49163  70.0000  82.6074 0003228 264.6741  95.4049 14.98334442 66559,6950.179,96.107,574.288,569.8009999999998,0.0
49163.0,STARLINK-3088,PAYLOAD,2022-11-17 08:35:32,14.98344218,0.0003329,69.9998,81.0929,262.9879,97.0901,0.00018901,2.164e-05,0.0,0 STARLINK-3088,1 49163U 21082AK  22321.35801343  .00002164  00000-0  18901-3 0  9998,2 49163  69.9998  81.0929 0003329 262.9879  97.0901 14.98344218 66635,6950.149,96.106,574.328,569.7,0.0
49163.0,STARLINK-3088,PAYLOAD,2022-11-17 19:48:29,14.98334292,0.0002952,70.0008,79.9136,261.0344,99.0481,1.9835e-05,1.44e-06,0.0,0 STARLINK-3088,1 49163U 21082AK  22321.82534157  .00000144  00000-0  19835-4 0  9990,2 49163  70.0008  79.9136 0002952 261.0344  99.0481 14.98334292 66708,6950.18,96.107,574.096,569.993,0.0
49163.0,STARLINK-3088,PAYLOAD,2022-11-18 07:01:26,14.98315144,0.0003263,70.0009,78.7344,258.841,101.2382,0.0005009,5.886e-05,0.0,0 STARLINK-3088,1 49163U 21082AK  22322.29266864  .00005886  00000-0  50090-3 0  9994,2 49163  70.0009  78.7344 0003263 258.8410 101.2382 14.98315144 66780,6950.239000000001,96.108,574.372,569.836,0.0
49163.0,STARLINK-3088,PAYLOAD,2022-11-18 10:13:41,14.9833712,0.0003288,69.9998,78.3996,262.7536,97.3249,0.0001107999999999,1.229e-05,0.0,0 STARLINK-3088,1 49163U 21082AK  22322.42617779  .00001229  00000-0  11080-3 0  9997,2 49163  69.9998  78.3996 0003288 262.7536  97.3249 14.98337120 66799,6950.170999999999,96.107,574.321,569.751,0.0
49163.0,STARLINK-3088,PAYLOAD,2022-11-19 00:38:54,14.98328581,0.0003436,69.9997,76.8853,262.5309,97.546,-4.9991e-05,-6.89e-06,0.0,0 STARLINK-3088,1 49163U 21082AK  22323.02702526 -.00000689  00000-0 -49991-4 0  9993,2 49163  69.9997  76.8853 0003436 262.5309  97.5460 14.98328581 66893,6950.196999999999,96.107,574.45,569.674,0.0
49163.0,STARLINK-3088,PAYLOAD,2022-11-19 10:15:43,14.98334475,0.0003207,70.0002,75.8741,265.4518,94.6275,-6.169199999999999e-05,-8.29e-06,0.0,0 STARLINK-3088,1 49163U 21082AK  22323.42758159 -.00000829  00000-0 -61692-4 0  9998,2 49163  70.0002  75.8741 0003207 265.4518  94.6275 14.98334475 66956,6950.179,96.107,574.273,569.815,0.0
49163.0,STARLINK-3088,PAYLOAD,2022-11-20 11:53:51,14.98336313,0.0003308,70.0012,73.1812,265.9443,94.1338,0.00017004,1.937e-05,0.0,0 STARLINK-3088,1 49163U 21082AK  22324.49573779  .00001937  00000-0  17004-3 0  9995,2 49163  70.0012  73.1812 0003308 265.9443  94.1338 14.98336313 67118,6950.1730000000025,96.107,574.337,569.739,0.0
49163.0,STARLINK-3088,PAYLOAD,2022-11-20 13:29:59,14.98333952,0.0003385,70.0009,73.0129,265.7326,94.3446,0.00013438,1.511e-05,0.0,0 STARLINK-3088,1 49163U 21082AK  22324.56249867  .00001511  00000-0  13438-3 0  9996,2 49163  70.0009  73.0129 0003385 265.7326  94.3446 14.98333952 67115,6950.181,96.107,574.398,569.693,0.0
49163.0,STARLINK-3088,PAYLOAD,2022-11-20 19:54:32,14.983313,0.000325,70.0,72.3404,259.4811,100.5981,0.00011755,1.31e-05,0.0,0 STARLINK-3088,1 49163U 21082AK  22324.82954003  .00001310  00000-0  11755-3 0  9997,2 49163  70.0000  72.3404 0003250 259.4811 100.5981 14.98331300 67157,6950.189,96.107,574.313,569.795,0.0
49163.0,STARLINK-3088,PAYLOAD,2022-11-21 00:42:56,14.98330751,0.0003311,70.0,71.8347,261.2366,98.8418,0.00019474,2.231e-05,0.0,0 STARLINK-3088,1 49163U 21082AK  22325.02981965  .00002231  00000-0  19474-3 0  9996,2 49163  70.0000  71.8347 0003311 261.2366  98.8418 14.98330751 67198,6950.191,96.107,574.357,569.754,0.0
49163.0,STARLINK-3088,PAYLOAD,2022-11-21 13:32:00,14.983325199999998,0.0002982,70.0021,70.4888,263.16200000000003,96.92,7.1825e-05,7.64e-06,0.0,0 STARLINK-3088,1 49163U 21082AK  22325.56389930  .00000764  00000-0  71825-4 0  9997,2 49163  70.0021  70.4888 0002982 263.1620  96.9200 14.98332520 67265,6950.185,96.107,574.123,569.9780000000002,0.0
49163.0,STARLINK-3088,PAYLOAD,2022-11-21 18:20:25,14.98331174,0.0003077,70.0016,69.9831,268.0714,92.0092,4.2059e-05,4.09e-06,0.0,0 STARLINK-3088,1 49163U 21082AK  22325.76418077  .00000409  00000-0  42059-4 0  9997,2 49163  70.0016  69.9831 0003077 268.0714  92.0092 14.98331174 67297,6950.189,96.107,574.193,569.9159999999998,0.0
49163.0,STARLINK-3088,PAYLOAD,2022-11-22 10:21:45,14.98332512,0.0003073,70.0017,68.2998,268.2652,91.8155,0.00017927,2.047e-05,0.0,0 STARLINK-3088,1 49163U 21082AK  22326.43177938  .00002047  00000-0  17927-3 0  9995,2 49163  70.0017  68.2998 0003073 268.2652  91.8155 14.98332512 67400,6950.185,96.107,574.186,569.914,0.0
49163.0,STARLINK-3088,PAYLOAD,2022-11-22 18:22:25,14.98338994,0.0003143,70.0017,67.4588,266.6897,93.3902,0.00027537,3.195e-05,0.0,0 STARLINK-3088,1 49163U 21082AK  22326.76557520  .00003195  00000-0  27537-3 0  9993,2 49163  70.0017  67.4588 0003143 266.6897  93.3902 14.98338994 67448,6950.165,96.106,574.215,569.846,0.0
49163.0,STARLINK-3088,PAYLOAD,2022-11-23 08:47:38,14.98328694,0.0002974,70.0022,65.9442,264.2289,95.8531,-3.7989e-06,-1.38e-06,0.0,0 STARLINK-3088,1 49163U 21082AK  22327.36642210 -.00000138  00000-0 -37989-5 0  9991,2 49163  70.0022  65.9442 0002974 264.2289  95.8531 14.98328694 67548,6950.196999999999,96.107,574.129,569.995,0.0
